STARLINK-2171
1 27754C 21017AJ  21325.15676487  .00005043  00000-0  33790-3 0  3255
2 27754  53.0562  57.5242 0001073  76.8170 257.5581 15.06389696    12
